OBJECT_NAME,OBJECT_ID,EPOCH,MEAN_MOTION,ECCENTRICITY,INCLINATION,RA_OF_ASC_NODE,ARG_OF_PERICENTER,MEAN_ANOMALY,EPHEMERIS_TYPE,CLASSIFICATION_TYPE,NORAD_CAT_ID,ELEMENT_SET_NO,REV_AT_EPOCH,BSTAR,MEAN_MOTION_DOT,MEAN_MOTION_DDOT
ONEWEB-0422,2022-012E,2026-06-19T13:57:15.636672,13.17648279,.00011952,87.9140,5.3821,91.5930,268.5339,0,U,51626,999,21412,-.17603054E-3,-.55E-6,0
ONEWEB-0423,2022-012F,2026-06-19T22:54:16.489728,13.17650462,.0001913,87.9134,5.3131,85.4303,274.7047,0,U,51627,999,21406,-.7650221E-5,.1E-6,0
ONEWEB-0425,2022-012G,2026-06-20T07:33:37.791072,13.10237508,.0002043,87.8828,35.6441,75.8394,284.2960,0,U,51628,999,20973,-.20201E-2,-.691E-5,0
ONEWEB-0428,2022-012H,2026-06-20T08:54:33.286176,13.10319512,.0001773,87.8830,35.6401,82.5343,277.5986,0,U,51629,999,20970,.1199E-2,.431E-5,0
ONEWEB-0431,2022-012J,2026-06-20T08:10:51.460032,13.10442296,.0001691,87.8831,35.6386,103.6534,256.4782,0,U,51630,999,20975,-.13008E-2,-.442E-5,0
ONEWEB-0434,2022-012K,2026-06-20T07:38:40.452000,13.10220043,.0002263,87.8830,35.6683,70.7096,289.4276,0,U,51631,999,20973,-.25407E-3,-.76E-6,0
ONEWEB-0435,2022-012L,2026-06-20T07:49:17.848128,13.10501590,.0001521,87.8824,35.6528,88.7312,271.3990,0,U,51632,999,20972,.38371E-4,.26E-6,0
ONEWEB-0436,2022-012M,2026-06-20T11:27:33.382080,13.17649330,.0001668,87.9140,5.1911,92.5501,267.5821,0,U,51633,999,21411,-.37287E-4,-.2E-7,0
ONEWEB-0438,2022-012N,2026-06-20T09:16:20.752320,13.10257431,.0001927,87.8828,35.6438,79.9608,280.1737,0,U,51634,999,20976,.10568E-2,.381E-5,0
ONEWEB-0439,2022-012P,2026-06-20T07:31:13.564416,13.10243984,.0001759,87.8824,35.6459,80.8986,279.2340,0,U,51635,999,20973,.24015E-3,.96E-6,0
ONEWEB-0442,2022-012Q,2026-06-20T11:16:37.746912,13.17649430,.0002284,87.9130,5.2250,80.6158,279.5232,0,U,51636,999,21410,-.14761E-3,-.44E-6,0
ONEWEB-0443,2022-012R,2026-06-19T13:52:23.000736,13.17649633,.00017071,87.9132,5.4036,77.8037,282.3286,0,U,51637,999,21403,-.66443528E-4,-.13E-6,0
ONEWEB-0444,2022-012S,2026-06-20T09:06:39.746016,13.10288931,.0001665,87.8828,35.6313,76.7964,283.3349,0,U,51638,999,20975,-.10193E-2,-.343E-5,0
ONEWEB-0445,2022-012T,2026-06-20T07:46:52.398048,13.10508084,.0001983,87.8836,35.6306,89.9343,270.2011,0,U,51639,999,20975,.40398E-3,.154E-5,0
ONEWEB-0446,2022-012U,2026-06-20T09:04:14.308032,13.10290520,.0001917,87.8828,35.6485,86.8168,273.3179,0,U,51640,999,20974,.13061E-2,.468E-5,0
ONEWEB-0448,2022-012V,2026-06-19T14:51:51.473664,13.10280512,.00019128,87.8826,35.7960,84.0127,276.1218,0,U,51641,999,20961,-.30228247E-2,-.1041E-4,0
ONEWEB-0449,2022-012W,2026-06-20T09:18:45.855072,13.10250217,.0002117,87.8829,35.6286,73.7053,286.4307,0,U,51642,999,20972,.12057E-2,.433E-5,0
ONEWEB-0451,2022-012X,2026-06-19T22:37:16.548960,13.17649995,.0001962,87.9145,5.2948,82.4920,277.6434,0,U,51643,999,21402,.38565078E-4,.28E-6,0
ONEWEB-0452,2022-012Y,2026-06-20T11:20:15.953568,13.17649307,.0001825,87.9133,5.2261,78.3792,281.7544,0,U,51644,999,21410,-.22467E-4,.4E-7,0
ONEWEB-0456,2022-012AA,2026-06-20T07:42:02.047392,13.10521377,.0001565,87.8837,35.6295,83.3606,276.7700,0,U,51646,999,20975,.1126E-2,.407E-5,0
ONEWEB-0457,2022-012AB,2026-06-20T08:59:11.786208,13.10305379,.0002189,87.8832,35.6369,86.8486,273.2892,0,U,51647,999,20976,.14848E-2,.53E-5,0
ONEWEB-0458,2022-012AC,2026-06-20T07:40:15.009024,13.10370149,.0001819,87.8833,35.6356,77.4055,282.7275,0,U,51648,999,20971,.58918E-3,.218E-5,0
ONEWEB-0461,2022-012AD,2026-06-20T06:23:48.910848,13.17648276,.0001962,87.9141,5.2445,90.2840,269.8517,0,U,51649,999,21429,-.70575E-4,-.15E-6,0
ONEWEB-0463,2022-012AE,2026-06-20T11:25:08.461632,13.17649105,.0001994,87.9130,5.2251,90.8850,269.2510,0,U,51650,999,21410,-.35399E-5,.12E-6,0
ONEWEB-0464,2022-012AF,2026-06-20T07:36:03.458016,13.10227863,.0001566,87.8827,35.6577,79.4629,280.6674,0,U,51651,999,20973,-.70786E-3,-.234E-5,0
ONEWEB-0468,2022-012AG,2026-06-20T07:44:27.157056,13.10515101,.0001473,87.8823,35.6502,79.3667,280.7627,0,U,51652,999,20971,.30389E-3,.119E-5,0
ONEWEB-0473,2022-012AH,2026-06-20T09:13:54.778656,13.10262822,.00018,87.8824,35.6397,80.7774,279.3557,0,U,51653,999,20972,.19511E-3,.81E-6,0
ONEWEB-0474,2022-012AJ,2026-06-20T09:01:49.620000,13.10298530,.0001528,87.8839,35.6259,75.7189,284.4108,0,U,51654,999,20971,.16042E-2,.572E-5,0
ONEWEB-0475,2022-012AK,2026-06-19T13:49:58.285920,13.17648599,.0001418,87.9132,5.3973,71.2312,288.8974,0,U,51655,999,21400,-.63115682E-4,-.12E-6,0
ONEWEB-0490,2022-138A,2026-06-20T09:28:22.899072,13.19725001,.0001737,87.9181,304.3278,103.0828,257.0499,0,U,54113,999,17725,.1867E-3,.88E-6,0
ONEWEB-0492,2022-138B,2026-06-20T08:15:35.987328,13.19725882,.0001886,87.9173,304.3392,107.4941,252.6398,0,U,54114,999,17725,.14207E-3,.7E-6,0
