ONEWEB-0422             
1 51626U 22012E   26170.58143098 -.00000055  00000+0 -17603-3 0  9992
2 51626  87.9140   5.3821 0001195  91.5930 268.5339 13.17648279214127
ONEWEB-0423             
1 51627U 22012F   26170.95435752  .00000010  00000+0 -76502-5 0  9990
2 51627  87.9134   5.3131 0001913  85.4303 274.7047 13.17650462214064
ONEWEB-0425             
1 51628U 22012G   26171.31502073 -.00000691  00000+0 -20201-2 0  9991
2 51628  87.8828  35.6441 0002043  75.8394 284.2960 13.10237508209735
ONEWEB-0428             
1 51629U 22012H   26171.37121859  .00000431  00000+0  11990-2 0  9992
2 51629  87.8830  35.6401 0001773  82.5343 277.5986 13.10319512209709
ONEWEB-0431             
1 51630U 22012J   26171.34087338 -.00000442  00000+0 -13008-2 0  9990
2 51630  87.8831  35.6386 0001691 103.6534 256.4782 13.10442296209751
ONEWEB-0434             
1 51631U 22012K   26171.31852375 -.00000076  00000+0 -25407-3 0  9999
2 51631  87.8830  35.6683 0002263  70.7096 289.4276 13.10220043209730
ONEWEB-0435             
1 51632U 22012L   26171.32590102  .00000026  00000+0  38371-4 0  9996
2 51632  87.8824  35.6528 0001521  88.7312 271.3990 13.10501590209729
ONEWEB-0436             
1 51633U 22012M   26171.47746970 -.00000002  00000+0 -37287-4 0  9990
2 51633  87.9140   5.1911 0001668  92.5501 267.5821 13.17649330214116
ONEWEB-0438             
1 51634U 22012N   26171.38635130  .00000381  00000+0  10568-2 0  9995
2 51634  87.8828  35.6438 0001927  79.9608 280.1737 13.10257431209768
ONEWEB-0439             
1 51635U 22012P   26171.31335144  .00000096  00000+0  24015-3 0  9997
2 51635  87.8824  35.6459 0001759  80.8986 279.2340 13.10243984209735
ONEWEB-0442             
1 51636U 22012Q   26171.46988133 -.00000044  00000+0 -14761-3 0  9998
2 51636  87.9130   5.2250 0002284  80.6158 279.5232 13.17649430214105
ONEWEB-0443             
1 51637U 22012R   26170.57804399 -.00000013  00000+0 -66444-4 0  9993
2 51637  87.9132   5.4036 0001707  77.8037 282.3286 13.17649633214033
ONEWEB-0444             
1 51638U 22012S   26171.37962669 -.00000343  00000+0 -10193-2 0  9992
2 51638  87.8828  35.6313 0001665  76.7964 283.3349 13.10288931209755
ONEWEB-0445             
1 51639U 22012T   26171.32421757  .00000154  00000+0  40398-3 0  9995
2 51639  87.8836  35.6306 0001983  89.9343 270.2011 13.10508084209752
ONEWEB-0446             
1 51640U 22012U   26171.37794338  .00000468  00000+0  13061-2 0  9994
2 51640  87.8828  35.6485 0001917  86.8168 273.3179 13.10290520209742
ONEWEB-0448             
1 51641U 22012V   26170.61934576 -.00001041  00000+0 -30228-2 0  9995
2 51641  87.8826  35.7960 0001912  84.0127 276.1218 13.10280512209611
ONEWEB-0449             
1 51642U 22012W   26171.38803073  .00000433  00000+0  12057-2 0  9990
2 51642  87.8829  35.6286 0002117  73.7053 286.4307 13.10250217209720
ONEWEB-0451             
1 51643U 22012X   26170.94255265  .00000028  00000+0  38565-4 0  9990
2 51643  87.9145   5.2948 0001962  82.4920 277.6434 13.17649995214022
ONEWEB-0452             
1 51644U 22012Y   26171.47240687  .00000004  00000+0 -22467-4 0  9991
2 51644  87.9133   5.2261 0001825  78.3792 281.7544 13.17649307214101
ONEWEB-0456             
1 51646U 22012AA  26171.32085703  .00000407  00000+0  11260-2 0  9996
2 51646  87.8837  35.6295 0001565  83.3606 276.7700 13.10521377209750
ONEWEB-0457             
1 51647U 22012AB  26171.37444197  .00000530  00000+0  14848-2 0  9990
2 51647  87.8832  35.6369 0002189  86.8486 273.2892 13.10305379209762
ONEWEB-0458             
1 51648U 22012AC  26171.31961816  .00000218  00000+0  58918-3 0  9997
2 51648  87.8833  35.6356 0001819  77.4055 282.7275 13.10370149209719
ONEWEB-0461             
1 51649U 22012AD  26171.26653832 -.00000015  00000+0 -70575-4 0  9999
2 51649  87.9141   5.2445 0001962  90.2840 269.8517 13.17648276214299
ONEWEB-0463             
1 51650U 22012AE  26171.47579238  .00000012  00000+0 -35399-5 0  9993
2 51650  87.9130   5.2251 0001994  90.8850 269.2510 13.17649105214105
ONEWEB-0464             
1 51651U 22012AF  26171.31670669 -.00000234  00000+0 -70786-3 0  9991
2 51651  87.8827  35.6577 0001566  79.4629 280.6674 13.10227863209735
ONEWEB-0468             
1 51652U 22012AG  26171.32253654  .00000119  00000+0  30389-3 0  9999
2 51652  87.8823  35.6502 0001473  79.3667 280.7627 13.10515101209710
ONEWEB-0473             
1 51653U 22012AH  26171.38466179  .00000081  00000+0  19511-3 0  9996
2 51653  87.8824  35.6397 0001800  80.7774 279.3557 13.10262822209729
ONEWEB-0474             
1 51654U 22012AJ  26171.37626875  .00000572  00000+0  16042-2 0  9997
2 51654  87.8839  35.6259 0001528  75.7189 284.4108 13.10298530209717
ONEWEB-0475             
1 51655U 22012AK  26170.57636905 -.00000012  00000+0 -63116-4 0  9991
2 51655  87.9132   5.3973 0001418  71.2312 288.8974 13.17648599214007
ONEWEB-0490             
1 54113U 22138A   26171.39470948  .00000088  00000+0  18670-3 0  9991
2 54113  87.9181 304.3278 0001737 103.0828 257.0499 13.19725001177254
ONEWEB-0492             
1 54114U 22138B   26171.34416652  .00000070  00000+0  14207-3 0  9992
2 54114  87.9173 304.3392 0001886 107.4941 252.6398 13.19725882177258
